ONEWEB-0665             
1 55825U 23029AF  25155.61415602 -.00000187  00000+0 -53993-3 0  9993
2 55825  87.9044   4.8436 0001663  93.9061 266.2259 13.14504340109803
ONEWEB-0666             
1 55826U 23029AG  25155.76482201 -.00000017  00000+0 -73822-4 0  9995
2 55826  87.9264 349.6510 0002055  79.1125 281.0239 13.20772751111338
ONEWEB-0667             
1 55827U 23029AH  25155.83426244  .00000073  00000+0  14785-3 0  9991
2 55827  87.9264 349.5692 0001638  91.8256 268.3065 13.20772138111335
ONEWEB-0669             
1 55828U 23029AJ  25155.82953196  .00000058  00000+0  10956-3 0  9991
2 55828  87.9263 349.6057 0001805  66.2056 293.9266 13.20771415111335
ONEWEB-0670             
1 55829U 23029AK  25155.82031012  .00000021  00000+0  20939-4 0  9999
2 55829  87.9050   4.8204 0001365  86.7033 273.4253 13.14504052109854
ONEWEB-0671             
1 55830U 23029AL  25155.87496101  .00000028  00000+0  38002-4 0  9997
2 55830  87.9233  19.9918 0001616  86.2547 273.8771 13.19725866109135
ONEWEB-0672             
1 55831U 23029AM  25155.82478289 -.00000004  00000+0 -42840-4 0  9991
2 55831  87.9264 349.5922 0002069  82.1986 277.9382 13.20772395111331
ONEWEB-0673             
1 55832U 23029AN  25155.85126877  .00000002  00000+0 -26579-4 0  9996
2 55832  87.9232  19.9603 0001886  91.7167 268.4181 13.19726308109132
